HTV-4 (KOUNOTORI 4)     
1 39221U 13040A   13222.70826389  .00005169  00000-0  97694-4 0   247
2 39221  51.6489 198.1879 0003607 297.7368  51.7267 15.50234506  1081
ARIRANG-5 (KOMPSAT-5)   
1 39227U 13042A   13241.32164549 -.00000063  00000-0  00000+0 0   314
2 39227  97.5997  67.6917 0025729 276.9430 207.7281 15.03890038  1019
SL-24 R/B               
1 39228U 13042B   13241.28020158  .00000447  00000-0  11438-3 0   144
2 39228  97.4999  66.6291 0461864 167.3527 193.9688 14.05183441   930
SL-24 DEB               
1 39229U 13042C   13241.07524347  .00009900  00000-0  57650-3 0   139
2 39229  97.6019  67.5044 0025548 313.6883  46.2133 15.11945939   962
